CANX-5                  
1 40056U 14034D   24320.51730739  .00002967  00000+0  40700-3 0  9990
2 40056  98.3801 161.6123 0014441  68.9663 291.3090 14.79160507549729
UKUBE-1                 
1 40074U 14037F   24320.57216472  .00015921  00000+0  13203-2 0  9993
2 40074  98.3517 260.3528 0001676 319.3280  40.7815 14.98905281561411
BRITE-PL2 (HEWELIUSZ)   
1 40119U 14049B   24320.55494090  .00005496  00000+0  56511-3 0  9994
2 40119  97.8877  59.7393 0014464 222.4988 137.5110 14.90669370555113
AEROCUBE 5C             
1 40965U 15058B   24320.23093884  .00008186  00000+0  69979-3 0  9996
2 40965  64.7693 257.1325 0188575 262.9672  94.9959 14.85458977279454
AEROCUBE 7              
1 40966U 15058C   24320.23004610  .00010209  00000+0  82805-3 0  9998
2 40966  64.7665 249.3131 0182289 262.5757  95.4609 14.87954754279553
FOX-1A (AO-85)          
1 40967U 15058D   24320.48598701  .00008488  00000+0  74074-3 0  9990
2 40967  64.7765 270.7720 0186604 258.6265  99.3831 14.84915136 27438
SINOD-D 1               
1 40968U 15058E   24320.56006532  .00010530  00000+0  86863-3 0  9996
2 40968  64.7774 261.6497 0179316 257.5804 100.5190 14.87682143 30303
SNAP-3 ALICE            
1 40970U 15058G   24320.11297817  .00028817  00000+0  16057-2 0  9992
2 40970  64.7680 209.7064 0138898 255.5640 103.0032 15.05578649 28420
LMRST-SAT               
1 40971U 15058H   24320.46796233  .00008241  00000+0  71811-3 0  9996
2 40971  64.7769 266.3939 0188008 260.0273  97.9573 14.84823764 27438
SNAP-3 EDDIE            
1 40972U 15058J   24320.08332826  .00028345  00000+0  15577-2 0  9992
2 40972  64.7651 202.8762 0139001 256.4581 102.1022 15.06044000 30523
PROPCUBE 3              
1 40973U 15058K   24319.95507960  .00008562  00000+0  71033-3 0  9999
2 40973  64.7708 254.2590 0184009 261.5704  96.4512 14.87065196 28421
BISONSAT                
1 40974U 15058L   24320.34435169  .00018695  00000+0  12414-2 0  9991
2 40974  64.7665 221.1313 0158250 259.0404  99.2874 14.97553691 28344
SNAP-3 JIMI             
1 40975U 15058M   24320.21225308  .00012983  00000+0  98102-3 0  9993
2 40975  64.7690 238.8741 0173176 260.4449  97.7058 14.91436305 27513
PROPCUBE 1 (FLORA)      
1 40976U 15058N   24320.51669813  .00008637  00000+0  78130-3 0  9990
2 40976  64.7755 282.5313 0186940 261.3731  96.6160 14.83545198 30220
SINOD-D 3               
1 40977U 15058P   24320.27321865  .00011008  00000+0  94159-3 0  9991
2 40977  64.7742 274.9214 0179592 260.6639  97.4126 14.86301110 28456
HORYU-4                 
1 41340U 16012D   24320.60261045  .00027841  00000+0  11026-2 0  9990
2 41340  31.0014  63.8737 0009872  83.6321 276.5445 15.24203581481205
RAVAN                   
1 41849U 16067B   24320.52268130  .00025112  00000+0  11500-2 0  9993
2 41849  98.0594 147.7660 0010690 232.4348 127.5915 15.20436140438928
CELTEE 1                
1 41850U 16067C   24320.43846419  .00011326  00000+0  69530-3 0  9996
2 41850  98.1069 138.1983 0001971  58.8695 301.2726 15.10286904438221
OPTICUBE 04             
1 41851U 16067D   24320.41008427  .00006042  00000+0  43047-3 0  9998
2 41851  98.0857 132.0323 0015910 269.8068  90.1333 15.04902147437968
AEROCUBE 8D             
1 41852U 16067E   24320.47436969  .00012975  00000+0  75408-3 0  9999
2 41852  98.1108 138.4536 0004313 330.5098  29.5887 15.12232117438221
AEROCUBE 8C             
1 41853U 16067F   24320.49010446  .00014080  00000+0  81721-3 0  9994
2 41853  98.0937 136.6865 0006071 248.0348 112.0236 15.12251926438214
PROMETHEUS 2-1          
1 41854U 16067G   24320.50462771  .00039329  00000+0  14487-2 0  9996
2 41854  98.0946 147.0861 0009272 260.9946  99.0242 15.27686298438749
PROMETHEUS 2-3          
1 41855U 16067H   24320.50674433  .00039451  00000+0  14574-2 0  9990
2 41855  98.0889 146.4305 0007982 272.8598  87.1725 15.27600390438746
CORVUS BC2              
1 42846U 17042X   24320.47565128  .00006499  00000+0  52399-3 0  9995
2 42846  97.3722 137.4257 0008744 271.6936  88.3287 15.00186305400102
CORVUS BC1              
1 42847U 17042Y   24320.48803301  .00007146  00000+0  57368-3 0  9996
2 42847  97.3686 137.8516 0008626 254.2164 105.8109 15.00319076400126
MIRATA                  
1 43015U 17073C   24320.44272091  .00048887  00000+0  16804-2 0  9996
2 43015  97.5688 204.4305 0139494  99.1866 262.5179 15.21060229379206
MAKERSAT 0              
1 43016U 17073D   24319.18194762  .00017410  00000+0  85555-3 0  9992
2 43016  97.5486 194.4073 0174773 132.8090 228.7982 15.05618746378420
SIRION PATHFINDER-2     
1 43759U 18099B   24320.56831069  .00011103  00000+0  76258-3 0  9990
2 43759  97.5099  12.5983 0011317 128.0464 232.1786 15.06079129325262
CORVUS BC4              
1 43767U 18099K   24320.08794680  .00009019  00000+0  63901-3 0  9997
2 43767  97.4932   8.8362 0009603 183.7479 176.3677 15.04987520325061
MOVE-II                 
1 43780U 18099Y   24320.42943804  .00053695  00000+0  18385-2 0  9998
2 43780  97.5008  23.1002 0004942 162.9244 197.2164 15.30025971325922
SPACEBEE-7              
1 43816U 18099BL  24320.42741857  .00032455  00000+0  14751-2 0  9996
2 43816  97.5291  22.9441 0008919 121.0380 239.1732 15.20648100325319
SPACEBEE-6              
1 43818U 18099BN  24320.59038390  .00179768  00000+0  28135-2 0  9997
2 43818  97.5168  32.5403 0002217 120.5963 239.5509 15.53104987326116
SHIELDS 1               
1 43850U 18104B   24320.34385977  .00027927  00000+0  56912-3 0  9993
2 43850  85.0218 179.9897 0007160 207.3544 152.7335 15.46064999329446
SONATE                  
1 44400U 19038Q   24320.46028030  .00050849  00000+0  99469-3 0  9992
2 44400  97.7130 322.5945 0009530 290.0946  69.9277 15.47223009297357
LUCKY-7                 
1 44406U 19038W   24320.47727518  .00299527  00000+0  15674-2 0  9999
2 44406  97.6891 330.4715 0003915 218.3892 141.7097 15.80006176297892
DUCHIFAT-3              
1 44854U 19089C   24320.03421185  .00033468  00000+0  12528-2 0  9990
2 44854  36.9522 207.4351 0012607 288.6256  71.3125 15.26361854271245
M2 PATHFINDER           
1 45727U 20037E   24320.46975310  .00005717  00000+0  47082-3 0  9996
2 45727  97.7805 136.4110 0011769 342.2623  17.8187 14.99424685238596
NETSAT-4                
1 46504U 20068U   24320.44841689  .00021625  00000+0  96803-3 0  9994
2 46504  97.8235 282.3972 0008107 181.3398 178.7816 15.21270158227110
NETSAT-3                
1 46505U 20068V   24320.42683601  .00019174  00000+0  87618-3 0  9991
2 46505  97.8223 281.6931 0007098 192.1531 167.9533 15.20595100227091
NETSAT-1                
1 46506U 20068W   24320.42484715  .00015305  00000+0  76012-3 0  9995
2 46506  97.8246 280.7014 0005856 204.7940 155.3013 15.17762820227021
NETSAT-2                
1 46507U 20068X   24320.47006578  .00019794  00000+0  88982-3 0  9993
2 46507  97.8223 282.0083 0004773 205.2975 154.8027 15.21162556227067
WILDTRACKCUBE-SIMBA     
1 47941U 21022K   24320.54898621  .00031468  00000+0  10737-2 0  9997
2 47941  97.4415 216.5750 0012329 344.8140  15.2729 15.30206761201532
GRBALPHA                
1 47959U 21022AD  24320.56483776  .00055991  00000+0  14073-2 0  9993
2 47959  97.4410 219.8765 0009031 338.5906  21.4960 15.39737666200575
BEESAT-8                
1 48085U 21022AP  24319.47836886  .00121448  00000+0  18300-2 0  9994
2 48085  97.4704 224.7694 0004386 356.7364   3.3860 15.54360373201018
LEDSAT                  
1 49069U 21073D   24320.14918833  .00040359  00000+0  11547-2 0  9999
2 49069  97.4205  31.0933 0015952 107.1460 253.1532 15.35719274179526
ROBUSTA-1F (MTCUBE 2)   
1 53109U 22080E   24320.52853007 -.00000003  00000+0  00000+0 0  9993
2 53109  70.1140 139.5017 0008334  55.9312 304.2138  6.42584259 54883
SITRO-AIS 5 (KATYS)     
1 57176U 23091L   24320.58977493  .00014885  00000+0  83427-3 0  9996
2 57176  97.5923  11.7607 0015355 327.2775  32.7504 15.13394605 76356
SITRO-AIS 6 (CHIRKIN)   
1 57192U 23091AC  24320.57053486  .00015529  00000+0  86974-3 0  9996
2 57192  97.5920  11.7722 0015248 326.7152  33.3119 15.13412425 76353
SITRO-AIS 8 (ANOKHIN)   
1 57193U 23091AD  24320.55733302  .00016905  00000+0  92777-3 0  9994
2 57193  97.5922  11.9323 0014918 327.7905  32.2414 15.14123853 76367
SITRO-AIS 7 (FARTUSHNIY)
1 57194U 23091AE  24320.58167941  .00014911  00000+0  83753-3 0  9997
2 57194  97.5919  11.7489 0015169 327.5630  32.4667 15.13318741 76359
SITRO-AIS 10 (BURDAEV)  
1 57199U 23091AK  24320.59130150  .00018253  00000+0  93939-3 0  9995
2 57199  97.5933  13.3628 0010144 315.0498  44.9913 15.16437825 76456
SITRO-AIS 9 (SHCHUKIN)  
1 57201U 23091AM  24320.59269806  .00018073  00000+0  93184-3 0  9992
2 57201  97.5929  13.3285 0010121 315.1738  44.8676 15.16374167 76451
SITRO-AIS 12 (SMIRENNIY)
1 57204U 23091AQ  24320.60171721  .00017917  00000+0  91871-3 0  9992
2 57204  97.5940  13.5310 0009892 308.8209  51.2140 15.16573467 76466
SITRO-AIS 11 (SHEFFER)  
1 57208U 23091AU  24320.57644341  .00018740  00000+0  95678-3 0  9999
2 57208  97.5936  13.5496 0009862 308.7422  51.2929 15.16715480 76461
VERONIKA                
1 58261U 23174F   24320.26577169  .00051125  00000+0  15600-2 0  9990
2 58261  97.4451  34.6257 0009718  69.9935 290.2353 15.33710801 56753
ROBUSTA-1E (ENSO)       
1 58470U 23185J   24320.59606689  .00038353  00000+0  11729-2 0  9996
2 58470  97.4076  26.4941 0010868 102.2678 257.9782 15.33697646 53259
SITRO-AIS 29            
1 59052U 24039B   24320.57953881  .00063372  00000+0  14158-2 0  9997
2 59052  97.4069 282.8249 0016100  50.1517 310.1144 15.43165957 39800
SITRO-AIS 30            
1 59053U 24039C   24320.59783411  .00061814  00000+0  14005-2 0  9990
2 59053  97.4066 282.7949 0016410  50.4124 309.8569 15.42748888 39798
